COSMOS 2251 DEB         
1 34860U 93036ACE 17345.46591658  .00002096  00000-0  45707-3 0  9999
2 34860  74.0268 131.4756 0025874 221.9984 137.9197 14.58345405457864
